ZHUHAI-1 02 (CAS-4B)    
1 42759U 17034B   23150.61210840  .00005572  00000+0  28675-3 0  9994
2 42759  43.0149 213.3699 0011147 341.9306  18.1145 15.17157388328967
ZHUHAI-1 01 (CAS-4A)    
1 42761U 17034D   23150.62827493  .00005970  00000+0  30627-3 0  9998
2 42761  43.0139 211.8119 0011844 344.4147  15.6335 15.17162508328967
MAX VALIER SAT          
1 42778U 17036P   23150.67002697  .00019228  00000+0  51419-3 0  9997
2 42778  97.1570 185.9361 0009855 152.8359 207.3404 15.38051073330034
RADFXSAT (FOX-1B)       
1 43017U 17073E   23150.61122667  .00005339  00000+0  37407-3 0  9998
2 43017  97.6335  35.6469 0235465 127.0938 235.2056 14.85832554298577
FOX-1D (AO-92)          
1 43137U 18004AC  23150.71688185  .00028219  00000+0  60116-3 0  9994
2 43137  97.3293 229.7344 0006290 188.3153 171.7993 15.44877405299619
DIWATA-2B               
1 43678U 18084H   23150.90209135  .00001171  00000+0  11731-3 0  9994
2 43678  98.0207 294.5264 0008810 211.9280 148.1406 14.93372672249685
ES'HAIL 2               
1 43700U 18090A   23150.86830208  .00000163  00000+0  00000+0 0  9996
2 43700   0.0152 288.8034 0001706 172.7082 125.0105  1.00274167 16513
FOX-1CLIFF (AO-95)      
1 43770U 18099N   23150.61155395  .00003396  00000+0  27967-3 0  9998
2 43770  97.5749 212.6265 0011953 186.5783 173.5286 14.99677423244975
ITASAT 1                
1 43786U 18099AE  23150.67683245  .00003016  00000+0  25077-3 0  9990
2 43786  97.5793 213.7223 0013157 173.6609 186.4783 14.99380468245021
JY1SAT (JO-97)          
1 43803U 18099AX  23150.91314700  .00005090  00000+0  40631-3 0  9991
2 43803  97.5695 213.9267 0013408 148.7603 211.4421 15.00639385245103
UWE-4                   
1 43880U 18111E   23150.70375546  .00004248  00000+0  32794-3 0  9998
2 43880  97.6323  56.1627 0016640 229.8157 130.1612 15.01986494241742
NEXUS (FO-99)           
1 43937U 19003F   23150.62760531  .00044846  00000+0  76665-3 0  9998
2 43937  97.0879 178.0734 0010341 349.5905  10.5132 15.51095909243322
JAISAT-1                
1 44419U 19038F   23150.89370888  .00021445  00000+0  74871-3 0  9990
2 44419  97.6726 132.0502 0014882  13.6636 346.5003 15.29509810215898
DUCHIFAT-3              
1 44854U 19089C   23150.43951516  .00005208  00000+0  35551-3 0  9993
2 44854  36.9612 197.3335 0009236 178.5905 181.4865 15.05987933190227
CAS-6 (TIANQIN 1)       
1 44881U 19093C   23150.88328908  .00000878  00000+0  11576-3 0  9999
2 44881  97.8615 229.6289 0015878 131.3631 228.8951 14.82498501186235
RS-44 & BREEZE-KM R/B   
1 44909U 19096E   23150.86588732  .00000033  00000+0  93860-4 0  9994
2 44909  82.5227 359.4583 0216606 227.2953 130.9732 12.79720831159945
BY70-2                  
1 45857U 20042B   23150.88583993  .00014808  00000+0  15439-2 0  9995
2 45857  97.9252 230.7328 0009478  74.2675 285.9587 14.89837807156965
SALSAT                  
1 46495U 20068K   23150.79831876  .00004084  00000+0  27210-3 0  9994
2 46495  97.7690  98.6201 0015701 173.0191 187.1258 15.07582734146454
RADFXSAT-2 (AO-109)     
1 47311U 21002C   23150.50176537  .00019580  00000+0  52255-3 0  9990
2 47311  60.6793 126.4832 0014948 166.0687 194.0823 15.38110734131561
UVSQ-SAT                
1 47438U 21006AB  23150.89573819  .00012947  00000+0  53792-3 0  9997
2 47438  97.3859 208.2567 0011426 138.4968 221.7139 15.23881456130015
DIY-1 (ARDUIQUBE)       
1 47963U 21022AH  23150.72687975  .00160527  00000+0  23474-2 0  9990
2 47963  97.4980  58.4354 0006639  58.0887 302.1012 15.55032505119873
XW-3 (CAS-9)            
1 50466U 21131B   23150.92456468  .00000532  00000+0  18714-3 0  9997
2 50466  98.5515 232.5231 0004398 175.2387 184.8843 14.38899933 74870
TEVEL-3                 
1 50988U 22002E   23150.85394550  .00015462  00000+0  63168-3 0  9990
2 50988  97.4344 217.9450 0006087 294.0128  66.0472 15.24454179 76121
TEVEL-8                 
1 50989U 22002F   23150.93758904  .00016131  00000+0  66005-3 0  9994
2 50989  97.4358 218.0854 0006166 292.3255  67.7329 15.24390514 76139
TEVEL-5                 
1 50998U 22002Q   23150.87336571  .00016587  00000+0  66130-3 0  9993
2 50998  97.4337 218.3278 0007338 286.8787  73.1646 15.25252120 76155
TEVEL-6                 
1 50999U 22002R   23150.93749393  .00016868  00000+0  67237-3 0  9992
2 50999  97.4335 218.3864 0007343 286.3955  73.6476 15.25254248 76163
TEVEL-1                 
1 51013U 22002AF  23150.86323046  .00016088  00000+0  65797-3 0  9998
2 51013  97.4338 217.8998 0006051 293.4838  66.5763 15.24409788 76126
TEVEL-7                 
1 51062U 22002CG  23150.87313813  .00016137  00000+0  66002-3 0  9999
2 51062  97.4354 217.9950 0006141 291.8914  68.1670 15.24404804 76123
TEVEL-4                 
1 51063U 22002CH  23150.87864313  .00015998  00000+0  65534-3 0  9999
2 51063  97.4354 217.9856 0006147 292.2541  67.8044 15.24356019 76121
TEVEL-2                 
1 51069U 22002CP  23150.92143380  .00015859  00000+0  64775-3 0  9997
2 51069  97.4342 217.9841 0006067 293.1634  66.8964 15.24457269 76132
GREENCUBE               
1 53106U 22080B   23149.84195747 -.00000003  00000+0  00000+0 0  9993
2 53106  70.1621 326.0976 0008371 189.0727 170.9782  6.42557054 20576
RS29S (SXC3-2110 CYCLO*)
1 53373U 22096D   23150.90188368  .00023630  00000+0  63392-3 0  9993
2 53373  97.4155  57.0107 0002457 112.7316 247.4188 15.37961617 45035
RS32S (SXC3-212 MONITO*)
1 53374U 22096E   23150.92687997  .00022580  00000+0  62146-3 0  9997
2 53374  97.4135  56.9409 0002726 123.7599 236.3905 15.37176039 45031
RS34S (SXC3-218 KUZBAS*)
1 53375U 22096F   23150.92688036  .00019503  00000+0  56910-3 0  9996
2 53375  97.4160  56.6758 0002620 120.4110 239.7393 15.35376159 45019
RS23S (SXC3-21 UTMN)    
1 53376U 22096G   23150.89005300  .00020092  00000+0  57682-3 0  9992
2 53376  97.4155  56.7188 0002434 115.2280 244.9216 15.35881740 45014
RS28S (SXC3-214 MIET-A*)
1 53377U 22096H   23150.93228475  .00016903  00000+0  49920-3 0  9990
2 53377  97.4165  56.6746 0002533 123.1556 236.9931 15.35027980 45012
RS26S (KAI-1)           
1 53378U 22096J   23150.89024397  .00015141  00000+0  46702-3 0  9991
2 53378  97.4179  56.4383 0002599 119.9412 240.2089 15.33675679 44999
RS19S (SXC3-219 ISOI)   
1 53381U 22096M   23150.88898701  .00017197  00000+0  49539-3 0  9996
2 53381  97.4156  56.8683 0005519 110.8967 249.2868 15.35796859 45020
RS21S (CUBESX-HSE-2)    
1 53383U 22096P   23150.93166094  .00019684  00000+0  55916-3 0  9996
2 53383  97.4159  56.9744 0006025 112.0890 248.0994 15.36203543 45038
RS30S (SXC3-217 SIREN)  
1 53384U 22096Q   23150.94695030  .00016473  00000+0  48987-3 0  9998
2 53384  97.4170  56.8126 0006030 109.5750 250.6145 15.34800411 45028
RS20S (GEOSCAN-EDELVEIS)
1 53385U 22096R   23150.88561078  .00027662  00000+0  70563-3 0  9993
2 53385  97.4150  57.4730 0006396 110.4083 249.7850 15.39464318 45096
RS33S (SXC3-215 VIZARD) 
1 53386U 22096S   23150.90455820  .00037215  00000+0  84824-3 0  9994
2 53386  97.4146  58.0543 0007130 109.8326 250.3690 15.42806580 45129
CAS-5A (FO-118)         
1 54684U 22167C   23150.89047715  .00008672  00000+0  48468-3 0  9992
2 54684  97.5596 288.5945 0013967  40.0730 320.1529 15.13655372 26065
